{
"type": "FeatureCollection",
"name": "murray_hill_border",
"crs": { "type": "name", "properties": { "name": "urn:ogc:def:crs:OGC:1.3:CRS84" } },
"features": [
{ "type": "Feature", "properties": { "id": 1 }, "geometry": { "type": "MultiPolygon", "coordinates": [ [ [ [ -73.980943385792202, 40.753631924967095 ], [ -73.969883301144193, 40.749052749556562 ], [ -73.97131577277537, 40.746915628711754 ], [ -73.971065963661005, 40.746812820647321 ], [ -73.973365585221472, 40.743610420878227 ], [ -73.984732286077559, 40.748372482828188 ], [ -73.980943385792202, 40.753631924967095 ] ], [ [ -73.977836198764876, 40.752113960418605 ], [ -73.978672919437159, 40.750997215623983 ], [ -73.978409019918075, 40.750877264693692 ], [ -73.977596515308548, 40.752018852244234 ], [ -73.977836198764876, 40.752113960418605 ] ] ] ] } }
]
}
